[{"OBJECT_NAME":"STARLINK-31321","OBJECT_ID":"2024-020M","EPOCH":"2026-03-09T21:40:40.314432","MEAN_MOTION":15.30180359,"ECCENTRICITY":0.00011827,"INCLINATION":53.161,"RA_OF_ASC_NODE":321.4395,"ARG_OF_PERICENTER":101.9416,"MEAN_ANOMALY":258.1718,"EPHEMERIS_TYPE":0,"CLASSIFICATION_TYPE":"U","NORAD_CAT_ID":58887,"ELEMENT_SET_NO":999,"REV_AT_EPOCH":11926,"BSTAR":8.8560795e-5,"MEAN_MOTION_DOT":2.263e-5,"MEAN_MOTION_DDOT":0},{"OBJECT_NAME":"SCS-01 D","OBJECT_ID":"2025-100D","EPOCH":"2026-03-09T18:08:45.040704","MEAN_MOTION":15.31902149,"ECCENTRICITY":0.00063457,"INCLINATION":97.373,"RA_OF_ASC_NODE":145.4097,"ARG_OF_PERICENTER":266.2302,"MEAN_ANOMALY":93.8214,"EPHEMERIS_TYPE":0,"CLASSIFICATION_TYPE":"U","NORAD_CAT_ID":63985,"ELEMENT_SET_NO":999,"REV_AT_EPOCH":4562,"BSTAR":0.0010528181,"MEAN_MOTION_DOT":0.00032471,"MEAN_MOTION_DDOT":0}]
